format  = 'OEF2.0'       ! file format
rectype = 'ML'           ! record type (1L/ML)
refsys  = ECLM J2000     ! default reference system
END_OF_HEADER
2024YR4
! Keplerian elements: a, e, i, long. node, arg. peric., mean anomaly
 KEP   2.5164332860625849E+00  6.6161845913486128E-01   3.4083351351535 271.3684549331765 134.3639170929742  1.2947786309204405E+01
 MJD     60688.865642464 TDT
 MAG  23.876  0.150
! Non-gravitational parameters: model used, number of model parameters, dimension
 LSP   0  0    6
! PERIHELION   8.5151457282218190E-01
! APHELION   4.1813519993029882E+00
! ANODE   1.6158098389539370E+00
! DNODE  -1.5840554270114965E-02
! MOID   2.7785886271125522E-03
! PERIOD   1.4580639039239943E+03
! PHA F
! VINFTY    14.2168543469435
! U_PAR 5.5
! ORB_TYPE Apollo
! RMS    1.46024E-04   2.08510E-05   7.80469E-05   1.09509E-05   9.05105E-05   1.18339E-03
 COV   2.132309431034840E-08  3.044754539891089E-09  1.139519830562004E-08
 COV  -1.322015947926820E-09 -1.318719375737641E-08 -1.728035045410224E-07
 COV   4.347648602992980E-10  1.627137012958929E-09 -1.887805632452709E-10
 COV  -1.883050918721391E-09 -2.467484932480712E-08  6.091314992114084E-09
 COV  -7.007653075390621E-10 -7.052675566598593E-09 -9.234745627461765E-08
 COV   1.199214466204667E-10  7.911720695845702E-10  1.071094770286801E-08
 COV   8.192142461689422E-09  1.068691763405510E-07  1.400409464536380E-06
 COR   1.000000000000000E+00  9.999998969422654E-01  9.998647194887070E-01
 COR  -8.267289597683575E-01 -9.977655968989192E-01 -9.999998006809782E-01
 COR   1.000000000000000E+00  9.998650259282418E-01 -8.267641385388432E-01
 COR  -9.977829950739745E-01 -9.999994776953000E-01  1.000000000000000E+00
 COR  -8.199146282139559E-01 -9.983886357849586E-01 -9.998662046276492E-01
 COR   9.999999999999998E-01  7.982221403925573E-01  8.265173047750388E-01
 COR   1.000000000000000E+00  9.977602443962413E-01  1.000000000000000E+00
